LEMUR-1                 
1 40044U 14033AL  26192.88323400  .00000888  00000+0  10759-3 0  9999
2 40044  97.7903 342.1444 0048047 358.8650   1.2448 14.85331099649134
LEMUR-2-GREENBERG       
1 42837U 17042N   26190.49536315  .00011532  00000+0  37497-3 0  9996
2 42837  97.3831  11.0293 0007135 283.6729  76.3718 15.32031511491802
LEMUR-2-ANDIS           
1 42838U 17042P   26192.75250957  .00012453  00000+0  35909-3 0  9992
2 42838  97.3677  13.5506 0007128 272.8241  87.2186 15.35830402492222
LEMUR-2-MONSON          
1 42839U 17042Q   26191.46928106  .00009600  00000+0  34677-3 0  9999
2 42839  97.4089  11.9359 0005156 266.7916  93.2733 15.28674858491721
LEMUR-2-FURIAUS         
1 42840U 17042R   26191.74629141  .00012077  00000+0  40490-3 0  9991
2 42840  97.3778  10.1778 0006359 347.2297  12.8782 15.31036825491817
LEMUR-2-PETERG          
1 42841U 17042S   26193.20772518  .00011726  00000+0  34802-3 0  9992
2 42841  97.3991  18.2981 0003102 233.4276 126.6682 15.34955040492272
LEMUR-2-DEMBITZ         
1 42842U 17042T   26192.48491306  .00009065  00000+0  30475-3 0  9990
2 42842  97.3826  13.9535 0005020 291.4687  68.6018 15.31034137492065
LEMUR-2-ZACHARY         
1 42845U 17042W   26192.76525310  .00031651  00000+0  51731-3 0  9991
2 42845  97.3581  24.9630 0002433 265.2719  94.8256 15.52486995493011
LEMUR-2-AMANDA-SVANTE   
1 48269U 21034B   26192.93265476  .00020915  00000+0  60136-3 0  9996
2 48269  97.5758 271.8961 0004497 151.4014 208.7477 15.35822625284857
LEMUR-2-SPECIAL-K       
1 48273U 21034F   26193.21876865  .00172789  00000+0  12138-2 0  9998
2 48273  97.5632 282.0516 0006324 216.8117 143.2713 15.73622953285619
LEMUR-2-EMBRIONOVIS     
1 56970U 23084AQ  26192.86227579  .00009025  00000+0  24216-3 0  9993
2 56970  97.6309 338.0236 0008044 219.4230 140.6430 15.38173955171470
LEMUR-2-DEVERILL-M-T    
1 57391U 23100F   26193.11415714  .00016119  00000+0  39346-3 0  9991
2 57391  99.4465 239.0952 0004785 309.8311  50.2507 15.40988276165082
LEMUR-2-BASS            
1 58259U 23174D   26193.16965524  .00011618  00000+0  25715-3 0  9994
2 58259  97.3850 278.2440 0007787  87.2492 272.9648 15.43927047149218
LEMUR-2-JK0903EM1407    
1 58336U 23174CJ  26192.96169835  .00017525  00000+0  28286-3 0  9997
2 58336  97.3924 284.1520 0003928  44.2300 315.9266 15.52951542149575
LEMUR-2-MJR092620       
1 58340U 23174CN  26193.21822677  .00011937  00000+0  24816-3 0  9997
2 58340  97.3981 283.7232 0005575  40.0935 320.0724 15.45789892149515
LEMUR-2-NIMBUS2000      
1 58899U 24022A   26193.02191331  .00013803  00000+0  33591-3 0  9998
2 58899  97.4089  43.3496 0009084  39.2199 320.9704 15.41025605136094
LEMUR-2-VALHALLA        
1 58900U 24022B   26193.02550516  .00009868  00000+0  24564-3 0  9991
2 58900  97.4086  43.3264 0009560  34.6870 325.4998 15.40423731136097
LEMUR-2-CAEL            
1 58903U 24022E   26193.01391027  .00010769  00000+0  25623-3 0  9992
2 58903  97.4071  44.2954 0007449  20.6211 339.5336 15.41784380136169
LEMUR-2-JOHNNYTRUONG    
1 59146U 24043BA  26192.88763128  .00026304  00000+0  29809-3 0  9996
2 59146  97.5382 346.1580 0004233 102.8607 257.3124 15.62371951131890
LEMUR-2-TOMATOKECHUP    
1 60471U 24149D   26192.79324289  .00006490  00000+0  18430-3 0  9999
2 60471  97.3803 274.9096 0003122 128.0995 232.0531 15.36537067105947
LEMUR-2-STELLA          
1 60533U 24149BT  26192.76554195  .00006496  00000+0  37867-3 0  9997
2 60533  97.6740 275.3352 0001184 113.7387 246.3968 15.12328256104214
LEMUR-2-MARHISYAM       
1 60536U 24149BW  26192.75511137  .00005773  00000+0  34254-3 0  9992
2 60536  97.6885 275.7985 0002821  75.4227 284.7316 15.11737522104198
LEMUR-2-AHMED-ASRAR     
1 60576U 24149DN  26192.76508708  .00006643  00000+0  37730-3 0  9996
2 60576  97.7007 277.9980 0000771 214.4074 145.7107 15.13261688104286
LEMUR-2-LLOYD           
1 60577U 24149DP  26193.16609564  .00006210  00000+0  38905-3 0  9999
2 60577  97.6751 274.3148 0004752  78.6462 281.5300 15.09716355104165
LEMUR-2-SQUIRRELCOMM    
1 60578U 24149DQ  26193.01733695  .00003206  00000+0  21586-3 0  9996
2 60578  97.6718 273.8533 0004272 342.4944  17.6135 15.07428709104148
LEMUR-2-SIERRINI        
1 60579U 24149DR  26193.04820347  .00007287  00000+0  43429-3 0  9994
2 60579  97.6843 275.7574 0006369  98.6701 261.5251 15.11469800104213
LEMUR-2-WILSON          
1 62694U 25009CP  26193.19049435  .00000575  00000+0  57380-4 0  9992
2 62694  97.7025 271.2168 0002236 341.0743  19.0394 14.95272231 81091
LEMUR-2-STAR-FOX        
1 62696U 25009CR  26193.19721705  .00003406  00000+0  25891-3 0  9998
2 62696  97.6920 274.6272 0002616  53.8668 306.2799 15.02819173 81311
LEMUR-2-ARIANNA         
1 62699U 25009CU  26192.79618634  .00003632  00000+0  27574-3 0  9993
2 62699  97.6857 273.9837 0002952  61.1158 299.0362 15.02817181 81256
LEMUR-2-ALISIA          
1 62706U 25009DB  26193.16870972  .00004948  00000+0  37072-3 0  9994
2 62706  97.6972 275.1716 0003904 138.4642 221.6881 15.03147322103916
